# Metar_Taf
A simple program that provides metar/taf information. 

User should select what kind of information wants to receive, respectivelly metar or taf.

Next ICAO aiport code should be entered.

If a connection error occurs the program terminates with an error message.

-------------------------------------------------------------------------------------------
Example for LIME - Bergamo Orio al serio Airport

Airpot METAR/TAF INFO

Enter ICAO code to view latest info:

METAR for LIME:

LIME 221720Z 19003KT 5000 BR BKN040 12/07 Q1016 NOSIG

TAF for LIME:

TAF LIME 221700Z 2218/2318 VRB05KT 4000 BR BKN030 TEMPO 2218/2308 1500
